ORBCOMM FM115           
1 41186U 15081H   25092.55683343  .00002086  00000+0  44348-3 0  9991
2 41186  46.9989  39.2107 0000636 353.3436   6.7443 14.62303296496707
ORBCOMM FM108           
1 41187U 15081J   25092.99998149  .00001379  00000+0  33380-3 0  9991
2 41187  47.0037 102.0019 0003632 311.7988  48.2587 14.58015720495902
ORBCOMM FM117           
1 41188U 15081K   25093.17193753  .00001694  00000+0  40197-3 0  9995
2 41188  47.0001  99.9789 0003802 323.7513  36.3115 14.57960959495949
ORBCOMM FM116           
1 41189U 15081L   25092.75215696  .00002362  00000+0  54579-3 0  9992
2 41189  47.0007 191.8310 0000594  18.8407 341.2500 14.57978284494649
